[{"OBJECT_NAME":"STARLINK-36172","OBJECT_ID":"2025-293T","EPOCH":"2026-03-09T19:05:12.319872","MEAN_MOTION":14.98326791,"ECCENTRICITY":0.00028802,"INCLINATION":70.001,"RA_OF_ASC_NODE":94.1898,"ARG_OF_PERICENTER":269.5473,"MEAN_ANOMALY":90.5356,"EPHEMERIS_TYPE":0,"CLASSIFICATION_TYPE":"U","NORAD_CAT_ID":67020,"ELEMENT_SET_NO":999,"REV_AT_EPOCH":1489,"BSTAR":0.0013659613,"MEAN_MOTION_DOT":0.00016242,"MEAN_MOTION_DDOT":0},{"OBJECT_NAME":"NOAA 16 DEB","OBJECT_ID":"2000-055HK","EPOCH":"2026-03-09T11:22:55.184448","MEAN_MOTION":14.96713123,"ECCENTRICITY":0.00044813,"INCLINATION":98.9091,"RA_OF_ASC_NODE":257.3123,"ARG_OF_PERICENTER":226.904,"MEAN_ANOMALY":133.1803,"EPHEMERIS_TYPE":0,"CLASSIFICATION_TYPE":"U","NORAD_CAT_ID":41307,"ELEMENT_SET_NO":999,"REV_AT_EPOCH":53055,"BSTAR":0.0073865996,"MEAN_MOTION_DOT":0.00085329,"MEAN_MOTION_DDOT":0}]
